      2.10          N: GNSS NAV DATA                        RINEX VERSION / TYPE
fic2rin                                 11/29/2024 00:59:02 PGM / RUN BY / DATE
                                                            END OF HEADER
3  24 11 28  1 59 44.0  .611230731010D-03  .966338120634D-11  .000000000000D+00
     .130000000000D+02 -.347500000000D+02  .373158400688D-08 -.599268594582D+00
    -.187940895557D-05  .564469874371D-02  .106561928988D-04  .515362474632D+04
     .352784000000D+06 -.298023223877D-07 -.183357074267D+00  .856816768646D-07
     .987491362007D+00  .188093750000D+03  .115530214336D+01 -.762353183642D-08
     .188222125921D-09  .100000000000D+01  .234200000000D+04  .000000000000D+00
     .240000000000D+01  .000000000000D+00  .139698386192D-08  .130000000000D+02
     .345600000000D+06  .400000000000D+01
7  24 11 28  1 59 44.0 -.178404152393D-04  .181898940355D-11  .000000000000D+00
     .100000000000D+02 -.254687500000D+02  .491127600293D-08 -.185353490774D-01
    -.121816992760D-05  .188710532384D-01  .812299549580D-05  .515358397102D+04
     .352784000000D+06 -.163912773132D-06  .190503625700D+01  .331550836563D-06
     .949984250520D+00  .221718750000D+03 -.209179609920D+01 -.844928051788D-08
    -.365015204348D-09  .100000000000D+01  .234200000000D+04  .000000000000D+00
     .240000000000D+01  .000000000000D+00 -.107102096081D-07  .100000000000D+02
     .345600000000D+06  .400000000000D+01
27 24 11 28 16  0  0.0 -.345441512764D-04  .227373675443D-12  .000000000000D+00
     .490000000000D+02  .747812500000D+02  .461662087222D-08 -.239111954249D+01
     .387057662010D-05  .129104716470D-01  .207871198654D-05  .515368418121D+04
     .403200000000D+06  .409781932831D-07 -.229423723240D+01 -.132247805595D-06
     .959472754737D+00  .340062500000D+03  .800674571333D+00 -.820034157714D-08
     .251081887140D-09  .100000000000D+01  .234200000000D+04  .000000000000D+00
     .240000000000D+01  .000000000000D+00  .186264514923D-08  .490000000000D+02
     .396000000000D+06  .400000000000D+01
29 24 11 28 16  0  0.0 -.560240820050D-03  .306954461848D-11  .000000000000D+00
     .250000000000D+02  .552187500000D+02  .452197407266D-08 -.255379180946D+01
     .280141830444D-05  .286212505307D-02  .193342566490D-05  .515373962593D+04
     .403200000000D+06 -.186264514923D-07 -.220918407350D+01 -.745058059692D-08
     .968644505006D+00  .346687500000D+03  .266627428882D+01 -.829391690350D-08
     .810748056625D-10  .100000000000D+01  .234200000000D+04  .000000000000D+00
     .240000000000D+01  .000000000000D+00 -.977888703346D-08  .250000000000D+02
     .396000000000D+06  .400000000000D+01
30 24 11 28 16  0  0.0 -.272511504591D-03  .795807864051D-11  .000000000000D+00
     .170000000000D+02 -.299687500000D+02  .548165690444D-08  .885993309841D+00
    -.135786831379D-05  .716525828466D-02  .723078846931D-05  .515376831627D+04
     .403200000000D+06 -.298023223877D-07  .190247589289D+01  .502914190292D-07
     .935122360423D+00  .227437500000D+03 -.246029685399D+01 -.852678374620D-08
    -.555023118941D-09  .100000000000D+01  .234200000000D+04  .000000000000D+00
     .240000000000D+01  .000000000000D+00  .372529029846D-08  .170000000000D+02
     .396000000000D+06  .400000000000D+01
15 24 11 28 16  0  0.0  .233215279877D-03  .454747350886D-11  .000000000000D+00
     .520000000000D+02  .252187500000D+02  .530129224867D-08  .280857073142D+01
     .109523534775D-05  .161498530069D-01  .627338886261D-05  .515372395897D+04
     .403200000000D+06  .173225998878D-06  .698943309543D+00 -.180676579475D-06
     .937183094123D+00  .244312500000D+03  .138083819311D+01 -.808247952486D-08
     .440375486264D-09  .100000000000D+01  .234200000000D+04  .000000000000D+00
     .240000000000D+01  .000000000000D+00 -.102445483208D-07  .520000000000D+02
     .396000000000D+06  .400000000000D+01
8  24 11 28 16  0  0.0  .425423961133D-03  .966338120634D-11  .000000000000D+00
     .510000000000D+02  .836250000000D+02  .482127225391D-08 -.245833447666D+01
     .429153442383D-05  .100466529839D-01  .268965959549D-05  .515371698570D+04
     .403200000000D+06 -.484287738800D-07 -.232230966481D+01 -.137835741043D-06
     .950445280375D+00  .324062500000D+03  .382125643787D+00 -.838677791439D-08
     .244653047924D-09  .100000000000D+01  .234200000000D+04  .000000000000D+00
     .240000000000D+01  .000000000000D+00  .465661287308D-08  .510000000000D+02
     .396000000000D+06  .400000000000D+01
17 24 11 28 16  0  0.0  .540863722563D-03 -.152340362547D-10  .000000000000D+00
     .290000000000D+02  .719687500000D+02  .442411285349D-08 -.251395950672D+01
     .381655991077D-05  .135053703561D-01  .194087624550D-05  .515358483315D+04
     .403200000000D+06  .169500708580D-06 -.222467736928D+01  .128522515297D-06
     .966162180259D+00  .346687500000D+03 -.126409646726D+01 -.805176395972D-08
     .114647632677D-09  .100000000000D+01  .234200000000D+04  .000000000000D+00
     .240000000000D+01  .000000000000D+00 -.111758708954D-07  .290000000000D+02
     .396000000000D+06  .400000000000D+01
25 24 11 28 16  0  0.0  .498634297401D-03 -.341060513165D-12  .000000000000D+00
     .260000000000D+02  .841250000000D+02  .465447959204D-08  .137166843241D+00
     .449456274509D-05  .121304775821D-01  .100322067738D-04  .515370893478D+04
     .403200000000D+06 -.117346644402D-06  .293197906127D+01  .158324837685D-06
     .949725627084D+00  .180656250000D+03  .109926948874D+01 -.819069831832D-08
    -.231081054025D-09  .100000000000D+01  .234200000000D+04  .000000000000D+00
     .240000000000D+01  .000000000000D+00  .558793544769D-08  .260000000000D+02
     .396000000000D+06  .400000000000D+01
31 24 11 28 16  0  0.0 -.220960471779D-03  .682121026330D-12  .000000000000D+00
     .910000000000D+02 -.182812500000D+02  .497770734149D-08 -.192586742925D-01
    -.828877091408D-06  .107270781882D-01  .773184001446D-05  .515359090996D+04
     .403200000000D+06  .298023223877D-07  .192692944195D+01  .115483999252D-06
     .953894607139D+00  .226281250000D+03  .777248527658D+00 -.827570185906D-08
    -.555380276675D-09  .100000000000D+01  .234200000000D+04  .000000000000D+00
     .240000000000D+01  .000000000000D+00 -.130385160446D-07  .910000000000D+02
     .396000000000D+06  .400000000000D+01
24 24 11 28 16  0  0.0 -.477404799312D-03  .261479726760D-11  .000000000000D+00
     .770000000000D+02 -.300625000000D+02  .541022535760D-08  .192812867636D+01
    -.181794166565D-05  .163452533307D-01  .704824924469D-05  .515368960762D+04
     .403200000000D+06 -.232830643654D-06  .180430195340D+01 -.329688191414D-06
     .933667048054D+00  .231062500000D+03  .103438170905D+01 -.829570269217D-08
    -.410731394325D-09  .100000000000D+01  .234200000000D+04  .000000000000D+00
     .240000000000D+01  .000000000000D+00  .232830643654D-08  .770000000000D+02
     .396000000000D+06  .400000000000D+01
26 24 11 28 16  0  0.0  .103418715298D-04 -.134150468512D-10  .000000000000D+00
     .720000000000D+02  .791875000000D+02  .500163690968D-08 -.627451080862D+00
     .405311584473D-05  .963906385005D-02  .105258077383D-04  .515374180222D+04
     .403200000000D+06  .128522515297D-06  .286608390157D+01  .152736902237D-06
     .930453831880D+00  .159906250000D+03  .585087123776D+00 -.827713048999D-08
    -.290726395636D-09  .100000000000D+01  .234200000000D+04  .000000000000D+00
     .340000000000D+01  .000000000000D+00  .651925802231D-08  .720000000000D+02
     .396000000000D+06  .400000000000D+01
21 24 11 28 16  0  0.0  .963332131505D-04 -.909494701773D-12  .000000000000D+00
     .820000000000D+02 -.982187500000D+02  .431482258682D-08 -.264794280616D+01
    -.464729964733D-05  .256323964568D-01  .347755849361D-05  .515363483238D+04
     .403200000000D+06 -.216066837311D-06 -.133017185701D+01  .320374965668D-06
     .960682665523D+00  .313906250000D+03 -.486631843198D+00 -.795247410961D-08
    -.224652214809D-09  .100000000000D+01  .234200000000D+04  .000000000000D+00
     .240000000000D+01  .000000000000D+00 -.102445483208D-07  .820000000000D+02
     .396000000000D+06  .400000000000D+01
20 24 11 28 16  0  0.0  .368346925825D-03 -.341060513165D-12  .000000000000D+00
     .840000000000D+02 -.757187500000D+02  .420660379336D-08  .220347689799D+01
    -.389292836189D-05  .386236526538D-02  .105071812868D-04  .515365192604D+04
     .403200000000D+06 -.745058059692D-07 -.369439589785D+00 -.949949026108D-07
     .956616904580D+00  .172875000000D+03 -.243518509859D+01 -.783496921506D-08
     .221437795202D-09  .100000000000D+01  .234200000000D+04  .000000000000D+00
     .340000000000D+01  .000000000000D+00 -.838190317154D-08  .840000000000D+02
     .396000000000D+06  .400000000000D+01
19 24 11 28 16  0  0.0  .567994546145D-03  .432009983342D-11  .000000000000D+00
     .630000000000D+02  .515937500000D+02  .450090176634D-08 -.646521445413D+00
     .273063778877D-05  .995124340989D-02  .224821269512D-05  .515359277153D+04
     .403200000000D+06 -.149011611938D-07 -.218044507709D+01 -.253319740295D-06
     .965341364720D+00  .342656250000D+03  .268649879187D+01 -.835749098019D-08
     .133576992589D-09  .100000000000D+01  .234200000000D+04  .000000000000D+00
     .240000000000D+01  .000000000000D+00 -.153668224812D-07  .630000000000D+02
     .396000000000D+06  .400000000000D+01
13 24 11 28 16  0  0.0  .687887892127D-03  .147792889038D-11  .000000000000D+00
     .600000000000D+01  .121875000000D+02  .469448125827D-08 -.276813168048D+01
     .469386577606D-06  .878662534524D-02  .554695725441D-05  .515367929268D+04
     .403200000000D+06  .150874257088D-06  .100026647261D+01 -.154599547386D-06
     .972295813943D+00  .278125000000D+03  .975082232546D+00 -.794890253227D-08
     .319299014371D-09  .100000000000D+01  .234200000000D+04  .000000000000D+00
     .240000000000D+01  .000000000000D+00 -.116415321827D-07  .262000000000D+03
     .396000000000D+06  .400000000000D+01
